[{"OBJECT_NAME":"STARLINK-31168","OBJECT_ID":"2024-012M","EPOCH":"2026-03-09T08:17:22.679232","MEAN_MOTION":15.27572558,"ECCENTRICITY":0.00011042,"INCLINATION":43.0023,"RA_OF_ASC_NODE":167.1626,"ARG_OF_PERICENTER":241.331,"MEAN_ANOMALY":118.743,"EPHEMERIS_TYPE":0,"CLASSIFICATION_TYPE":"U","NORAD_CAT_ID":58798,"ELEMENT_SET_NO":999,"REV_AT_EPOCH":12118,"BSTAR":-7.0126978e-5,"MEAN_MOTION_DOT":-2.191e-5,"MEAN_MOTION_DDOT":0},{"OBJECT_NAME":"CZ-6A DEB","OBJECT_ID":"2023-168D","EPOCH":"2026-03-09T19:03:52.964928","MEAN_MOTION":15.28240044,"ECCENTRICITY":0.00013417,"INCLINATION":97.7802,"RA_OF_ASC_NODE":98.3362,"ARG_OF_PERICENTER":174.0661,"MEAN_ANOMALY":186.0594,"EPHEMERIS_TYPE":0,"CLASSIFICATION_TYPE":"U","NORAD_CAT_ID":58202,"ELEMENT_SET_NO":999,"REV_AT_EPOCH":12922,"BSTAR":0.0014474773,"MEAN_MOTION_DOT":0.00039923,"MEAN_MOTION_DDOT":0}]
